{
  "type": "FeatureCollection",
  "features": [
    {
      "type": "Feature",
      "properties": {
        "norad_id": 45344,
        "name": "BEIDOU-3 G2 (C60)",
        "group": "gnss",
        "lat": -1.0407838355615804,
        "lon": -111.9808048552055,
        "alt_km": 35777.04732384937,
        "timestamp": "2025-12-12T05:47:29.014746+00:00",
        "meta_object_name": "BEIDOU-3 G2 (C60)",
        "meta_object_id": "2020-017A",
        "meta_epoch": "2025-12-11T22:27:08.686944",
        "meta_mean_motion": 1.00272909,
        "meta_eccentricity": 0.00044465,
        "meta_inclination": 2.4959,
        "meta_ra_of_asc_node": 43.8361,
        "meta_arg_of_pericenter": 266.1758,
        "meta_mean_anomaly": 187.6878,
        "meta_ephemeris_type": 0,
        "meta_classification_type": "U",
        "meta_norad_cat_id": 45344,
        "meta_element_set_no": 999,
        "meta_rev_at_epoch": 2138,
        "meta_bstar": 0,
        "meta_mean_motion_dot": -1.33e-06,
        "meta_mean_motion_ddot": 0,
        "tle_line1": "1 45344U 20017A   25345.93551721 -.00000133  00000+0  00000+0 0  9998",
        "tle_line2": "2 45344   2.4959  43.8361 0004446 266.1758 187.6878  1.00272909 21388"
      },
      "geometry": {
        "type": "Point",
        "coordinates": [
          -111.9808048552055,
          -1.0407838355615804
        ]
      }
    },
    {
      "type": "Feature",
      "properties": {
        "norad_id": 45358,
        "name": "COSMOS 2545 (760)",
        "group": "gnss",
        "lat": -11.515538187067124,
        "lon": 144.56295808622272,
        "alt_km": 19115.011734271917,
        "timestamp": "2025-12-12T05:47:29.014758+00:00",
        "meta_object_name": "COSMOS 2545 (760)",
        "meta_object_id": "2020-018A",
        "meta_epoch": "2025-12-10T13:58:04.872576",
        "meta_mean_motion": 2.13102273,
        "meta_eccentricity": 0.00118432,
        "meta_inclination": 64.471,
        "meta_ra_of_asc_node": 319.0455,
        "meta_arg_of_pericenter": 248.8319,
        "meta_mean_anomaly": 111.0396,
        "meta_ephemeris_type": 0,
        "meta_classification_type": "U",
        "meta_norad_cat_id": 45358,
        "meta_element_set_no": 999,
        "meta_rev_at_epoch": 4464,
        "meta_bstar": 0,
        "meta_mean_motion_dot": -5.2e-07,
        "meta_mean_motion_ddot": 0,
        "tle_line1": "1 45358U 20018A   25344.58200084 -.00000052  00000+0  00000+0 0  9997",
        "tle_line2": "2 45358  64.4710 319.0455 0011843 248.8319 111.0396  2.13102273 44648"
      },
      "geometry": {
        "type": "Point",
        "coordinates": [
          144.56295808622272,
          -11.515538187067124
        ]
      }
    },
    {
      "type": "Feature",
      "properties": {
        "norad_id": 45807,
        "name": "BEIDOU-3 G3 (C61)",
        "group": "gnss",
        "lat": -1.0703894208666187,
        "lon": -81.47312909612594,
        "alt_km": 35787.61316033443,
        "timestamp": "2025-12-12T05:47:29.014774+00:00",
        "meta_object_name": "BEIDOU-3 G3 (C61)",
        "meta_object_id": "2020-040A",
        "meta_epoch": "2025-12-08T17:33:17.532288",
        "meta_mean_motion": 1.00275813,
        "meta_eccentricity": 0.00060306,
        "meta_inclination": 1.9816,
        "meta_ra_of_asc_node": 66.5886,
        "meta_arg_of_pericenter": 306.262,
        "meta_mean_anomaly": 78.7159,
        "meta_ephemeris_type": 0,
        "meta_classification_type": "U",
        "meta_norad_cat_id": 45807,
        "meta_element_set_no": 999,
        "meta_rev_at_epoch": 2016,
        "meta_bstar": 0,
        "meta_mean_motion_dot": -3.52e-06,
        "meta_mean_motion_ddot": 0,
        "tle_line1": "1 45807U 20040A   25342.73145292 -.00000352  00000+0  00000+0 0  9998",
        "tle_line2": "2 45807   1.9816  66.5886 0006030 306.2620  78.7159  1.00275813 20161"
      },
      "geometry": {
        "type": "Point",
        "coordinates": [
          -81.47312909612594,
          -1.0703894208666187
        ]
      }
    },
    {
      "type": "Feature",
      "properties": {
        "norad_id": 45854,
        "name": "GPS BIII-3  (PRN 23)",
        "group": "gnss",
        "lat": -12.507617090015827,
        "lon": 27.792664903619407,
        "alt_km": 20309.716730303004,
        "timestamp": "2025-12-12T05:47:29.014787+00:00",
        "meta_object_name": "GPS BIII-3  (PRN 23)",
        "meta_object_id": "2020-041A",
        "meta_epoch": "2025-12-11T05:23:02.925888",
        "meta_mean_motion": 2.00561914,
        "meta_eccentricity": 0.00604597,
        "meta_inclination": 56.5461,
        "meta_ra_of_asc_node": 36.2442,
        "meta_arg_of_pericenter": 203.3747,
        "meta_mean_anomaly": 126.9066,
        "meta_ephemeris_type": 0,
        "meta_classification_type": "U",
        "meta_norad_cat_id": 45854,
        "meta_element_set_no": 999,
        "meta_rev_at_epoch": 4026,
        "meta_bstar": 0,
        "meta_mean_motion_dot": -9.4e-07,
        "meta_mean_motion_ddot": 0,
        "tle_line1": "1 45854U 20041A   25345.22433942 -.00000094  00000+0  00000+0 0  9993",
        "tle_line2": "2 45854  56.5461  36.2442 0060459 203.3747 126.9066  2.00561914 40266"
      },
      "geometry": {
        "type": "Point",
        "coordinates": [
          27.792664903619407,
          -12.507617090015827
        ]
      }
    },
    {
      "type": "Feature",
      "properties": {
        "norad_id": 46114,
        "name": "GALAXY 30 (WAAS/PRN 135)",
        "group": "gnss",
        "lat": 0.03466903432508009,
        "lon": 43.07429866168259,
        "alt_km": 35793.373799732224,
        "timestamp": "2025-12-12T05:47:29.014798+00:00",
        "meta_object_name": "GALAXY 30 (WAAS/PRN 135)",
        "meta_object_id": "2020-056C",
        "meta_epoch": "2025-12-11T23:11:21.488352",
        "meta_mean_motion": 1.00272653,
        "meta_eccentricity": 0.00022681,
        "meta_inclination": 0.0191,
        "meta_ra_of_asc_node": 335.5814,
        "meta_arg_of_pericenter": 285.5997,
        "meta_mean_anomaly": 42.5791,
        "meta_ephemeris_type": 0,
        "meta_classification_type": "U",
        "meta_norad_cat_id": 46114,
        "meta_element_set_no": 999,
        "meta_rev_at_epoch": 1941,
        "meta_bstar": 0,
        "meta_mean_motion_dot": 4.5e-07,
        "meta_mean_motion_ddot": 0,
        "tle_line1": "1 46114U 20056C   25345.96622093  .00000045  00000+0  00000+0 0  9992",
        "tle_line2": "2 46114   0.0191 335.5814 0002268 285.5997  42.5791  1.00272653 19410"
      },
      "geometry": {
        "type": "Point",
        "coordinates": [
          43.07429866168259,
          0.03466903432508009
        ]
      }
    },
    {
      "type": "Feature",
      "properties": {
        "norad_id": 46805,
        "name": "COSMOS 2547 (705K)",
        "group": "gnss",
        "lat": 42.676601493673125,
        "lon": -135.29871990688554,
        "alt_km": 19141.445800041147,
        "timestamp": "2025-12-12T05:47:29.014812+00:00",
        "meta_object_name": "COSMOS 2547 (705K)",
        "meta_object_id": "2020-075A",
        "meta_epoch": "2025-12-08T21:25:56.196192",
        "meta_mean_motion": 2.13099854,
        "meta_eccentricity": 0.00063847,
        "meta_inclination": 64.5958,
        "meta_ra_of_asc_node": 198.8249,
        "meta_arg_of_pericenter": 229.7163,
        "meta_mean_anomaly": 130.3027,
        "meta_ephemeris_type": 0,
        "meta_classification_type": "U",
        "meta_norad_cat_id": 46805,
        "meta_element_set_no": 999,
        "meta_rev_at_epoch": 3985,
        "meta_bstar": 0,
        "meta_mean_motion_dot": 4.5e-07,
        "meta_mean_motion_ddot": 0,
        "tle_line1": "1 46805U 20075A   25342.89301153  .00000045  00000+0  00000+0 0  9990",
        "tle_line2": "2 46805  64.5958 198.8249 0006384 229.7163 130.3027  2.13099854 39856"
      },
      "geometry": {
        "type": "Point",
        "coordinates": [
          -135.29871990688554,
          42.676601493673125
        ]
      }
    },
    {
      "type": "Feature",
      "properties": {
        "norad_id": 46826,
        "name": "GPS BIII-4  (PRN 14)",
        "group": "gnss",
        "lat": -34.09321048275651,
        "lon": -171.06995969153803,
        "alt_km": 20251.641146578477,
        "timestamp": "2025-12-12T05:47:29.014824+00:00",
        "meta_object_name": "GPS BIII-4  (PRN 14)",
        "meta_object_id": "2020-078A",
        "meta_epoch": "2025-12-11T12:08:25.039104",
        "meta_mean_motion": 2.0056681,
        "meta_eccentricity": 0.00646308,
        "meta_inclination": 54.0154,
        "meta_ra_of_asc_node": 218.391,
        "meta_arg_of_pericenter": 203.3565,
        "meta_mean_anomaly": 301.1266,
        "meta_ephemeris_type": 0,
        "meta_classification_type": "U",
        "meta_norad_cat_id": 46826,
        "meta_element_set_no": 999,
        "meta_rev_at_epoch": 3774,
        "meta_bstar": 0,
        "meta_mean_motion_dot": 1e-07,
        "meta_mean_motion_ddot": 0,
        "tle_line1": "1 46826U 20078A   25345.50584536  .00000010  00000+0  00000+0 0  9997",
        "tle_line2": "2 46826  54.0154 218.3910 0064630 203.3565 301.1266  2.00566810 37742"
      },
      "geometry": {
        "type": "Point",
        "coordinates": [
          -171.06995969153803,
          -34.09321048275651
        ]
      }
    }
  ]
}